#aV2016  4  6  0  0  0.00000000     288 DD+AD WGS84 FIT  NGA
## 1891 259200.00000000   300.00000000 57484 0.0000000000000
+   31     1  2  3  5  6  7  8  9 10 11 12 13 14 15 16 17 18
+         19 20 21 22 23 24 25 26 27 28 29 30 31 32  0  0  0
+          0  0  0  0  0  0  0  0  0  0  0  0  0  0  0  0  0
+          0  0  0  0  0  0  0  0  0  0  0  0  0  0  0  0  0
+          0  0  0  0  0  0  0  0  0  0  0  0  0  0  0  0  0
++         2  2  2  2  2  2  2  2  2  2  2  2  2  2  2  2  2
++         2  2  2  2  2  2  2  2  2  2  2  2  2  2  0  0  0
++         0  0  0  0  0  0  0  0  0  0  0  0  0  0  0  0  0
++         0  0  0  0  0  0  0  0  0  0  0  0  0  0  0  0  0
++         0  0  0  0  0  0  0  0  0  0  0  0  0  0  0  0  0
%c cc cc ccc ccc cccc cccc cccc cccc ccccc ccccc ccccc ccccc
%c cc cc ccc ccc cccc cccc cccc cccc ccccc ccccc ccccc ccccc
%f  0.0000000  0.000000000  0.00000000000  0.000000000000000
%f  0.0000000  0.000000000  0.00000000000  0.000000000000000
%i    0    0    0    0      0      0      0      0         0
%i    0    0    0    0      0      0      0      0         0
/*      NGA, ST. LOUIS,MO.                                  
/*   EPHEMERIS COMPUTED FROM 2 DAYS OF DATA                 
/*   EPOCHA v2.4 SMOOTHER                                   
/*   G1762 IERS2010 SATAF SATAPC                            
*  2016  4  6 12 40  0.00000000
P  1 -13514.320980  13326.205492  18410.431227     16.523891                    
V  1   -343.743900 -23657.089088  17025.420836      0.011236                    
P  2  14053.824039  10794.070379 -19469.031419    598.233054                    
V  2  -1479.772407  25600.741623  12443.292791     -0.006686                    
P  3 -22798.366616  13466.308907  -2159.363508    -44.516165                    
V  3  -3740.135598  -1258.805759  31567.496341     -0.041854                    
P  5  21959.660761    685.396814 -15131.469755   -131.252032                    
V  5 -15810.037491  10853.069646 -22357.845478      0.032113                    
P  6   6801.454520  23068.033264 -11259.588512    171.658075                    
V  6  -2982.285067  14195.141280  27244.578922      0.056942                    
P  7  -5957.165868  24911.300797  -6053.573562    461.530792                    
V  7  -2316.571127  -8124.003308 -30875.960793     -0.019925                    
P  8 -22490.643343  -2727.377887  13943.211570    -30.334579                    
V  8 -13761.014472 -11164.709810 -24445.987367     -0.014655                    
P  9  -4881.528071  14869.769008 -21475.442519    104.560687                    
V  9 -23271.816169 -14178.841372  -4545.913744      0.074674                    
P 10  -2181.091852 -15696.585672  21321.726145      8.909465                    
V 10  24263.531388 -11970.982901  -6395.455638     -0.097729                    
P 11 -14471.075102   7907.495602  20267.381741   -639.703655                    
V 11  -9172.295660 -25714.098803   3438.229904     -0.014798                    
P 12  24324.393016 -10300.558816    985.582043    375.297663                    
V 12   -435.836919   2452.252906  32520.122288      0.014119                    
P 13  22556.012998  11324.027309   7990.097134     -8.960278                    
V 13   6506.114469   8389.854973 -29843.996400     -0.027508                    
P 14 -11879.098272 -20191.712080  12922.711239     -6.815046                    
V 14  13927.393016   7996.324120  25647.442942     -0.021373                    
P 15  21290.606132  -1590.912905  15884.349550   -305.207425                    
V 15  16608.243087  11986.779164 -20551.448646     -0.017589                    
P 16 -21424.000245  -2123.048993 -15912.335053    -26.582298                    
V 16  17793.194909  -8764.046487 -22546.062345      0.028114                    
P 17  10370.473662  19712.694926  14937.463530   -202.862886                    
V 17 -15805.161597  -9320.566606  23618.818641     -0.004050                    
P 18   9550.475134 -19165.083315  16081.187407    501.690168                    
V 18  18465.406743  -7274.639673 -20584.310486      0.041870                    
P 19  17976.670354  18511.188621   5128.199755   -525.566189                    
V 19  -7089.453507  -2089.452119  31372.727287     -0.000953                    
P 20  23332.412738 -12563.242714  -2309.352287    404.200564                    
V 20   -315.944737   4703.445139 -30764.901671      0.024533                    
P 21   2052.938083 -26185.700239  -2038.584606   -517.979359                    
V 21   3812.488912   3590.673373 -31220.253595     -0.015340                    
P 22 -24317.062946   4839.185405  10013.575415    367.822850                    
V 22   9211.689264  -8926.267011  27175.511780     -0.071866                    
P 23 -15738.596082   7128.209319 -20101.849518   -168.138421                    
V 23 -21268.179963 -14750.621952  10883.294208     -0.017544                    
P 24  14417.760057 -10056.691021  19796.549334    -15.086326                    
V 24    741.636852  25383.788702  12511.049235     -0.005621                    
P 25  18012.512884 -16747.045199  -9888.125142   -147.988420                    
V 25  12019.138011  -3793.206067  28849.989392     -0.070957                    
P 26 -13450.894859  -9423.713165 -20886.452862   -320.532025                    
V 26  23106.805846 -13004.333658  -8967.317948     -0.138628                    
P 27 -23676.923998 -11334.773643   4564.509113     79.434397                    
V 27  -3649.965754  -5063.341190 -31168.700290      0.038411                    
P 28    -24.493802  15720.971603  22029.875704    514.286069                    
V 28 -24461.661501   9979.579742  -7406.055984      0.026143                    
P 29   8428.069543 -12242.229320 -21997.622624    656.696856                    
V 29  22643.868402  16328.684471   -365.546706      0.003395                    
P 30    -80.869203  26185.509384   4136.512789    114.084735                    
V 30  -3699.430206   4890.199379 -31040.787245      0.036033                    
P 31  -7574.154330 -21298.163008 -13540.127565    275.017141                    
V 31   3620.410267 -17256.214367  25280.058476     -0.018043                    
P 32 -13484.739958 -19046.359766  12689.250493      7.500756                    
V 32  14845.246206   6665.863343  25781.261582     -0.023747                    
EOF
